[{"OBJECT_NAME":"STARLINK-34567","OBJECT_ID":"2025-150F","EPOCH":"2026-03-09T13:47:10.199040","MEAN_MOTION":14.98328246,"ECCENTRICITY":0.0003505,"INCLINATION":70.002,"RA_OF_ASC_NODE":134.5852,"ARG_OF_PERICENTER":264.9582,"MEAN_ANOMALY":95.1177,"EPHEMERIS_TYPE":0,"CLASSIFICATION_TYPE":"U","NORAD_CAT_ID":64795,"ELEMENT_SET_NO":999,"REV_AT_EPOCH":3650,"BSTAR":0.0014222,"MEAN_MOTION_DOT":0.00016917,"MEAN_MOTION_DDOT":0},{"OBJECT_NAME":"PEGASUS R\/B","OBJECT_ID":"2003-004B","EPOCH":"2026-03-09T09:44:27.528288","MEAN_MOTION":14.94290093,"ECCENTRICITY":0.00174311,"INCLINATION":40.0025,"RA_OF_ASC_NODE":325.3337,"ARG_OF_PERICENTER":130.6865,"MEAN_ANOMALY":229.5444,"EPHEMERIS_TYPE":0,"CLASSIFICATION_TYPE":"U","NORAD_CAT_ID":27652,"ELEMENT_SET_NO":999,"REV_AT_EPOCH":25440,"BSTAR":0.00025016623,"MEAN_MOTION_DOT":2.598e-5,"MEAN_MOTION_DDOT":0}]
